*******************************************************************************
 Revised: Jul 31, 2013              Mercury                             199 / 1

 GEOPHYSICAL DATA (updated 2008-Feb-07):
  Mean radius (km)      =  2440(+-1)     Density (g cm^-3)     =  5.427
  Mass (10^23 kg )      =     3.302      Flattening, f         =  
  Volume (x10^10 km^3)  =     6.085      Semi-major axis       = 
  Sidereal rot. period  =    58.6462 d   Rot. Rate (x10^5 s)   =  0.124001
  Mean solar day        =   175.9421 d   Polar gravity ms^-2   =
  Mom. of Inertia       =     0.33       Equ. gravity  ms^-2   =  3.701     
  Core radius (km)      = ~1600          Potential Love # k2   =

  GM (km^3 s^-2)        = 22032.09       Equatorial Radius, Re =    2440 km
  GM 1-sigma (km^3 s^-2)=   +-0.91       Mass ratio (sun/plnt) = 6023600
 
  Atmos. pressure (bar) =                Max. angular diam.    = 11.0"   
  Mean Temperature (K)  =                Visual mag. V(1,0)    = -0.42 
  Geometric albedo      =   0.106        Obliquity to orbit[1] = 2.11' +/- 0.1'  
  Sidereal orb. per.    =   0.2408467 y  Mean Orbit vel.  km/s = 47.362 
  Sidereal orb. per.    =  87.969257  d  Escape vel. km/s      =  4.435
  Hill's sphere rad. Rp =  94.4          Planetary Solar Const = 9936.9 (Wm^2)

[1] Margot et al., Science 316, 2007
*******************************************************************************
 
 
*******************************************************************************
Ephemeris / WWW_USER Tue Oct 17 07:06:31 2017 Pasadena, USA      / Horizons    
*******************************************************************************
Target body name: Mercury (199)                   {source: DE431mx}
Center body name: Solar System Barycenter (0)     {source: DE431mx}
Center-site name: BODY CENTER
*******************************************************************************
Start time      : A.D. 2017-Oct-17 00:00:00.0000 TDB
Stop  time      : A.D. 2017-Nov-16 00:00:00.0000 TDB
Step-size       : 1440 minutes
*******************************************************************************
Center geodetic : 0.00000000,0.00000000,0.0000000 {E-lon(deg),Lat(deg),Alt(km)}
Center cylindric: 0.00000000,0.00000000,0.0000000 {E-lon(deg),Dxy(km),Dz(km)}
Center radii    : (undefined)                                                  
Output units    : AU-D                                                         
Output type     : GEOMETRIC cartesian states
Output format   : 3 (position, velocity, LT, range, range-rate)
Reference frame : ICRF/J2000.0                                                 
Coordinate systm: Ecliptic and Mean Equinox of Reference Epoch                 
*******************************************************************************
JDTDB
   X     Y     Z
   VX    VY    VZ
   LT    RG    RR
*******************************************************************************
$$SOE
2458067.500000000 = A.D. 2017-Nov-10 00:00:00.0000 TDB 
 X = 1.534087768386815E-01 Y =-4.135700618902641E-01 Z =-4.828155132681786E-02
 VX= 2.082214226335889E-02 VY= 1.097633998926115E-02 VZ=-1.014117417095433E-03
 LT= 2.562830909023118E-03 RG= 4.437404163489973E-01 RR=-2.921129162505745E-03
2458068.500000000 = A.D. 2017-Nov-11 00:00:00.0000 TDB 
 X = 1.739695146691006E-01 Y =-4.019071013169992E-01 Z =-4.921558175429319E-02
 VX= 2.028601600988341E-02 VY= 1.234812809941832E-02 VZ=-8.528404362163380E-04
 LT= 2.545273507861430E-03 RG= 4.407004465741425E-01 RR=-3.157879652552326E-03
2458069.500000000 = A.D. 2017-Nov-12 00:00:00.0000 TDB 
 X = 1.939537576880178E-01 Y =-3.888772367800515E-01 Z =-4.998503089308345E-02
 VX= 1.966873085603762E-02 VY= 1.370961027416060E-02 VZ=-6.849600777090472E-04
 LT= 2.526365600019875E-03 RG= 4.374266438162782E-01 RR=-3.388667271584800E-03
2458070.500000000 = A.D. 2017-Nov-13 00:00:00.0000 TDB 
 X = 2.132790554828722E-01 Y =-3.744924533227662E-01 Z =-5.058331408747747E-02
 VX= 1.896767818721581E-02 VY= 1.505736018779148E-02 VZ=-5.105170032237491E-04
 LT= 2.506143915852242E-03 RG= 4.339253677390187E-01 RR=-3.612684907234771E-03
2458071.500000000 = A.D. 2017-Nov-14 00:00:00.0000 TDB 
 X = 2.318602754388135E-01 Y =-3.587683765805005E-01 Z =-5.100389810083474E-02
 VX= 1.818010563404827E-02 VY= 1.638751284938495E-02 VZ=-3.295745310210132E-04
 LT= 2.484650090548159E-03 RG= 4.302038272519790E-01 RR=-3.829039611465634E-03
2458072.500000000 = A.D. 2017-Nov-15 00:00:00.0000 TDB 
 X = 2.496094705253764E-01 Y =-3.417247428361463E-01 Z =-5.124032739599877E-02
 VX= 1.730314149865265E-02 VY= 1.769570082196301E-02 VZ=-1.422260885524275E-04
 LT= 2.461931187498233E-03 RG= 4.262701711286379E-01 RR=-4.036742962540960E-03
2458073.500000000 = A.D. 2017-Nov-16 00:00:00.0000 TDB 
 X = 2.664357758780055E-01 Y =-3.233859358855151E-01 Z =-5.128625851657863E-02
 VX= 1.633382827012632E-02 VY= 1.897698436288083E-02 VZ= 5.139600439713248E-05
 LT= 2.438040278485014E-03 RG= 4.221335884632903E-01 RR=-4.234701046987363E-03
